start=new Date('2023-05-14T00:00:00.000Z').valueOf();
sats=[{"CLASSIFICATION_TYPE":"U","TLE_LINE2":"2 53685  97.6578  15.5105 0004066  83.6136 276.5551 15.01267294 38875","SEMIMAJOR_AXIS":"6941.124","MEAN_MOTION_DOT":"0.00001974","LAUNCH_DATE":"2022-08-31","REV_AT_EPOCH":"3887","ELEMENT_SET_NO":"999","BSTAR":"0.00015819000000","OBJECT_TYPE":"PAYLOAD","OBJECT_ID":"2022-105AP","COUNTRY_CODE":"US","DECAY_DATE":null,"EPOCH":"2023-05-13T22:44:25.293408","MEAN_MOTION":"15.01267294","ARG_OF_PERICENTER":"83.6136","PERIAPSIS":"560.167","EPHEMERIS_TYPE":"0","INCLINATION":"97.6578","GP_ID":"231756498","APOAPSIS":"565.812","MEAN_ELEMENT_THEORY":"SGP4","RA_OF_ASC_NODE":"15.5105","SITE":"AFWTR","MEAN_MOTION_DDOT":"0.0000000000000","REF_FRAME":"TEME","MEAN_ANOMALY":"276.5551","FILE":"3907134","RCS_SIZE":"LARGE","ECCENTRICITY":"0.00040660","PERIOD":"95.919","CENTER_NAME":"EARTH","OBJECT_NAME":"STARLINK-4626","TLE_LINE1":"1 53685U 22105AP  23133.94751497  .00001974  00000-0  15819-3 0  9993","TIME_SYSTEM":"UTC","NORAD_CAT_ID":"53685"},{"OBJECT_NAME":"STARLINK-4467","TLE_LINE1":"1 53686U 22105AQ  23133.67720511  .00000848  00000-0  70605-4 0  9991","TIME_SYSTEM":"UTC","NORAD_CAT_ID":"53686","SITE":"AFWTR","MEAN_MOTION_DDOT":"0.0000000000000","RA_OF_ASC_NODE":"15.2449","MEAN_ANOMALY":"284.3778","REF_FRAME":"TEME","RCS_SIZE":"LARGE","FILE":"3907148","ECCENTRICITY":"0.00052110","PERIOD":"95.919","CENTER_NAME":"EARTH","GP_ID":"231781011","INCLINATION":"97.6571","APOAPSIS":"566.611","MEAN_ELEMENT_THEORY":"SGP4","ARG_OF_PERICENTER":"75.8024","EPHEMERIS_TYPE":"0","PERIAPSIS":"559.377","DECAY_DATE":null,"EPOCH":"2023-05-13T16:15:10.521504","MEAN_MOTION":"15.01265666","OBJECT_TYPE":"PAYLOAD","BSTAR":"0.00007060500000","OBJECT_ID":"2022-105AQ","COUNTRY_CODE":"US","SEMIMAJOR_AXIS":"6941.129","MEAN_MOTION_DOT":"0.00000848","ELEMENT_SET_NO":"999","LAUNCH_DATE":"2022-08-31","REV_AT_EPOCH":"3855","CLASSIFICATION_TYPE":"U","TLE_LINE2":"2 53686  97.6571  15.2449 0005211  75.8024 284.3778 15.01265666 38553"},{"TIME_SYSTEM":"UTC","NORAD_CAT_ID":"53687","OBJECT_NAME":"STARLINK-4569","TLE_LINE1":"1 53687U 22105AR  23133.94566363  .00001442  00000-0  11683-3 0  9996","ECCENTRICITY":"0.00044670","FILE":"3907140","RCS_SIZE":"LARGE","CENTER_NAME":"EARTH","PERIOD":"95.919","SITE":"AFWTR","RA_OF_ASC_NODE":"15.5097","MEAN_MOTION_DDOT":"0.0000000000000","REF_FRAME":"TEME","MEAN_ANOMALY":"281.7790","MEAN_ELEMENT_THEORY":"SGP4","APOAPSIS":"566.095","GP_ID":"231756612","INCLINATION":"97.6573","PERIAPSIS":"559.894","EPHEMERIS_TYPE":"0","ARG_OF_PERICENTER":"78.3935","EPOCH":"2023-05-13T22:41:45.337632","MEAN_MOTION":"15.01265706","DECAY_DATE":null,"COUNTRY_CODE":"US","BSTAR":"0.00011683000000","OBJECT_TYPE":"PAYLOAD","OBJECT_ID":"2022-105AR","REV_AT_EPOCH":"3887","LAUNCH_DATE":"2022-08-31","ELEMENT_SET_NO":"999","SEMIMAJOR_AXIS":"6941.129","MEAN_MOTION_DOT":"0.00001442","TLE_LINE2":"2 53687  97.6573  15.5097 0004467  78.3935 281.7790 15.01265706 38874","CLASSIFICATION_TYPE":"U"},{"EPHEMERIS_TYPE":"0","PERIAPSIS":"559.191","ARG_OF_PERICENTER":"76.2767","MEAN_ELEMENT_THEORY":"SGP4","APOAPSIS":"566.788","INCLINATION":"97.6550","GP_ID":"231756607","PERIOD":"95.919","CENTER_NAME":"EARTH","ECCENTRICITY":"0.00054730","FILE":"3907140","RCS_SIZE":"LARGE","REF_FRAME":"TEME","MEAN_ANOMALY":"283.9067","RA_OF_ASC_NODE":"15.5023","SITE":"AFWTR","MEAN_MOTION_DDOT":"0.0000000000000","NORAD_CAT_ID":"53688","TIME_SYSTEM":"UTC","TLE_LINE1":"1 53688U 22105AS  23133.94011241  .00000627  00000-0  53418-4 0  9994","OBJECT_NAME":"STARLINK-4571","TLE_LINE2":"2 53688  97.6550  15.5023 0005473  76.2767 283.9067 15.01267270 38876","CLASSIFICATION_TYPE":"U","ELEMENT_SET_NO":"999","LAUNCH_DATE":"2022-08-31","REV_AT_EPOCH":"3887","MEAN_MOTION_DOT":"0.00000627","SEMIMAJOR_AXIS":"6941.124","COUNTRY_CODE":"US","OBJECT_ID":"2022-105AS","BSTAR":"0.00005341800000","OBJECT_TYPE":"PAYLOAD","MEAN_MOTION":"15.01267270","EPOCH":"2023-05-13T22:33:45.712224","DECAY_DATE":null},{"TLE_LINE2":"2 53689  97.6549  15.2451 0003119  99.9774 260.1802 15.01270529 38552","CLASSIFICATION_TYPE":"U","MEAN_MOTION_DOT":"0.00001384","SEMIMAJOR_AXIS":"6941.114","LAUNCH_DATE":"2022-08-31","REV_AT_EPOCH":"3855","ELEMENT_SET_NO":"999","OBJECT_ID":"2022-105AT","OBJECT_TYPE":"PAYLOAD","BSTAR":"0.00011232000000","COUNTRY_CODE":"US","DECAY_DATE":null,"MEAN_MOTION":"15.01270529","EPOCH":"2023-05-13T16:10:11.014176","ARG_OF_PERICENTER":"99.9774","PERIAPSIS":"560.814","EPHEMERIS_TYPE":"0","APOAPSIS":"565.144","INCLINATION":"97.6549","GP_ID":"231780252","MEAN_ELEMENT_THEORY":"SGP4","MEAN_ANOMALY":"260.1802","REF_FRAME":"TEME","SITE":"AFWTR","RA_OF_ASC_NODE":"15.2451","MEAN_MOTION_DDOT":"0.0000000000000","CENTER_NAME":"EARTH","PERIOD":"95.919","ECCENTRICITY":"0.00031190","FILE":"3907148","RCS_SIZE":"LARGE","TLE_LINE1":"1 53689U 22105AT  23133.67373859  .00001384  00000-0  11232-3 0  9999","OBJECT_NAME":"STARLINK-4562","NORAD_CAT_ID":"53689","TIME_SYSTEM":"UTC"},{"MEAN_MOTION":"15.01267879","EPOCH":"2023-05-13T16:07:10.489152","DECAY_DATE":null,"COUNTRY_CODE":"US","OBJECT_ID":"2022-105AU","BSTAR":"0.00005035000000","OBJECT_TYPE":"PAYLOAD","LAUNCH_DATE":"2022-08-31","ELEMENT_SET_NO":"999","REV_AT_EPOCH":"3855","MEAN_MOTION_DOT":"0.00000588","SEMIMAJOR_AXIS":"6941.123","CLASSIFICATION_TYPE":"U","TLE_LINE2":"2 53690  97.6548  15.2375 0005630  73.8335 286.3508 15.01267879 38559","NORAD_CAT_ID":"53690","TIME_SYSTEM":"UTC","TLE_LINE1":"1 53690U 22105AU  23133.67164918  .00000588  00000-0  50350-4 0  9995","OBJECT_NAME":"STARLINK-4570","PERIOD":"95.919","CENTER_NAME":"EARTH","FILE":"3907148","RCS_SIZE":"LARGE","ECCENTRICITY":"0.00056300","REF_FRAME":"TEME","MEAN_ANOMALY":"286.3508","RA_OF_ASC_NODE":"15.2375","SITE":"AFWTR","MEAN_MOTION_DDOT":"0.0000000000000","MEAN_ELEMENT_THEORY":"SGP4","INCLINATION":"97.6548","GP_ID":"231780511","APOAPSIS":"566.895","PERIAPSIS":"559.080","EPHEMERIS_TYPE":"0","ARG_OF_PERICENTER":"73.8335"},{"APOAPSIS":"564.702","INCLINATION":"97.6556","GP_ID":"231780747","MEAN_ELEMENT_THEORY":"SGP4","ARG_OF_PERICENTER":"89.5682","EPHEMERIS_TYPE":"0","PERIAPSIS":"561.296","OBJECT_NAME":"STARLINK-4560","TLE_LINE1":"1 53691U 22105AV  23133.67535035  .00001356  00000-0  11012-3 0  9993","TIME_SYSTEM":"UTC","NORAD_CAT_ID":"53691","SITE":"AFWTR","MEAN_MOTION_DDOT":"0.0000000000000","RA_OF_ASC_NODE":"15.2336","REF_FRAME":"TEME","MEAN_ANOMALY":"270.5824","ECCENTRICITY":"0.00024530","FILE":"3907148","RCS_SIZE":"LARGE","PERIOD":"95.919","CENTER_NAME":"EARTH","SEMIMAJOR_AXIS":"6941.134","MEAN_MOTION_DOT":"0.00001356","LAUNCH_DATE":"2022-08-31","ELEMENT_SET_NO":"999","REV_AT_EPOCH":"3855","TLE_LINE2":"2 53691  97.6556  15.2336 0002453  89.5682 270.5824 15.01264206 38552","CLASSIFICATION_TYPE":"U","DECAY_DATE":null,"EPOCH":"2023-05-13T16:12:30.270240","MEAN_MOTION":"15.01264206","OBJECT_TYPE":"PAYLOAD","BSTAR":"0.00011012000000","OBJECT_ID":"2022-105AV","COUNTRY_CODE":"US"},{"INCLINATION":"97.6551","GP_ID":"231780009","APOAPSIS":"566.769","MEAN_ELEMENT_THEORY":"SGP4","ARG_OF_PERICENTER":"59.4338","EPHEMERIS_TYPE":"0","PERIAPSIS":"559.243","TLE_LINE1":"1 53692U 22105AW  23133.66980365  .00000089  00000-0  11550-4 0  9993","OBJECT_NAME":"STARLINK-4572","NORAD_CAT_ID":"53692","TIME_SYSTEM":"UTC","REF_FRAME":"TEME","MEAN_ANOMALY":"300.7420","SITE":"AFWTR","RA_OF_ASC_NODE":"15.2330","MEAN_MOTION_DDOT":"0.0000000000000","PERIOD":"95.919","CENTER_NAME":"EARTH","FILE":"3907148","RCS_SIZE":"LARGE","ECCENTRICITY":"0.00054210","MEAN_MOTION_DOT":"0.00000089","SEMIMAJOR_AXIS":"6941.141","LAUNCH_DATE":"2022-08-31","ELEMENT_SET_NO":"999","REV_AT_EPOCH":"3855","CLASSIFICATION_TYPE":"U","TLE_LINE2":"2 53692  97.6551  15.2330 0005421  59.4338 300.7420 15.01261953 38558","DECAY_DATE":null,"MEAN_MOTION":"15.01261953","EPOCH":"2023-05-13T16:04:31.035360","OBJECT_ID":"2022-105AW","BSTAR":"0.00001155000000","OBJECT_TYPE":"PAYLOAD","COUNTRY_CODE":"US"},{"SITE":"AFWTR","RA_OF_ASC_NODE":"15.4902","MEAN_MOTION_DDOT":"0.0000000000000","REF_FRAME":"TEME","MEAN_ANOMALY":"305.8988","RCS_SIZE":"LARGE","FILE":"3907140","ECCENTRICITY":"0.00048700","PERIOD":"95.919","CENTER_NAME":"EARTH","OBJECT_NAME":"STARLINK-4566","TLE_LINE1":"1 53693U 22105AX  23133.93455663  .00000280  00000-0  26400-4 0  9995","TIME_SYSTEM":"UTC","NORAD_CAT_ID":"53693","ARG_OF_PERICENTER":"54.2688","PERIAPSIS":"559.614","EPHEMERIS_TYPE":"0","GP_ID":"231756543","INCLINATION":"97.6557","APOAPSIS":"566.375","MEAN_ELEMENT_THEORY":"SGP4","BSTAR":"0.00002640000000","OBJECT_TYPE":"PAYLOAD","OBJECT_ID":"2022-105AX","COUNTRY_CODE":"US","DECAY_DATE":null,"EPOCH":"2023-05-13T22:25:45.692832","MEAN_MOTION":"15.01265603","CLASSIFICATION_TYPE":"U","TLE_LINE2":"2 53693  97.6557  15.4902 0004870  54.2688 305.8988 15.01265603 38876","SEMIMAJOR_AXIS":"6941.130","MEAN_MOTION_DOT":"0.00000280","LAUNCH_DATE":"2022-08-31","ELEMENT_SET_NO":"999","REV_AT_EPOCH":"3887"},{"MEAN_ELEMENT_THEORY":"SGP4","APOAPSIS":"540.678","GP_ID":"231749281","INCLINATION":"53.2170","EPHEMERIS_TYPE":"0","PERIAPSIS":"538.818","ARG_OF_PERICENTER":"76.9224","NORAD_CAT_ID":"53700","TIME_SYSTEM":"UTC","TLE_LINE1":"1 53700U 22107A   23133.49426804 -.00000639  00000-0 -22066-4 0  9996","OBJECT_NAME":"STARLINK-4725","PERIOD":"95.438","CENTER_NAME":"EARTH","ECCENTRICITY":"0.00013440","FILE":"3906915","RCS_SIZE":"LARGE","MEAN_ANOMALY":"283.1918","REF_FRAME":"TEME","SITE":"AFETR","RA_OF_ASC_NODE":"192.9622","MEAN_MOTION_DDOT":"0.0000000000000","ELEMENT_SET_NO":"999","LAUNCH_DATE":"2022-09-05","REV_AT_EPOCH":"3918","MEAN_MOTION_DOT":"-0.00000639","SEMIMAJOR_AXIS":"6917.883","TLE_LINE2":"2 53700  53.2170 192.9622 0001344  76.9224 283.1918 15.08839061 39182","CLASSIFICATION_TYPE":"U","MEAN_MOTION":"15.08839061","EPOCH":"2023-05-13T11:51:44.758656","DECAY_DATE":null,"COUNTRY_CODE":"US","OBJECT_ID":"2022-107A","OBJECT_TYPE":"PAYLOAD","BSTAR":"-0.00002206600000"}];
